STARLINK-30494          
1 57970U 23151G   26068.36049035 -.00001272  00000+0 -35691-4 0  9993
2 57970  43.0027 192.4566 0001155 241.5536 118.5200 15.28417441137406
STARLINK-35743          
1 66578U 25268X   26067.20859500  .00045468  00000+0  16535-2 0  9993
2 66578  42.9997 355.3917 0000624 335.4914  24.5908 15.27542303 17736
